#aV2010  5  9  0  0   .00000000      96 DD+AD WGS84 FIT  NGA
## 1583       .00000000   900.00000000 55325  .0000000000000
+   31     1  2  3  4  5  6  7  8  9 10 11 12 13 14 15 16 17
+         18 19 20 21 22 23 24 26 27 28 29 30 31 32  0  0  0
+          0  0  0  0  0  0  0  0  0  0  0  0  0  0  0  0  0
+          0  0  0  0  0  0  0  0  0  0  0  0  0  0  0  0  0
+          0  0  0  0  0  0  0  0  0  0  0  0  0  0  0  0  0
++         0  0  0  0  0  0  0  0  0  0  0  0  0  0  0  0  0
++         0  0  0  0  0  0  0  0  0  0  0  0  0  0  0  0  0
++         0  0  0  0  0  0  0  0  0  0  0  0  0  0  0  0  0
++         0  0  0  0  0  0  0  0  0  0  0  0  0  0  0  0  0
++         0  0  0  0  0  0  0  0  0  0  0  0  0  0  0  0  0
%c cc cc ccc ccc cccc cccc cccc cccc ccccc ccccc ccccc ccccc
%c cc cc ccc ccc cccc cccc cccc cccc ccccc ccccc ccccc ccccc
%f  0.0000000  0.000000000  0.00000000000  0.000000000000000
%f  0.0000000  0.000000000  0.00000000000  0.000000000000000
%i    0    0    0    0      0      0      0      0         0
%i    0    0    0    0      0      0      0      0         0
/*      NGA, ST. LOUIS,MO.                                  
/*   EPHEMERIS COMPUTED FROM  3 DAYS OF DATA                
/* CCCCCCCCCCCCCCCCCCCCCCCCCCCCCCCCCCCCCCCCCCCCCCCCCCCCCCCCC
/* CCCCCCCCCCCCCCCCCCCCCCCCCCCCCCCCCCCCCCCCCCCCCCCCCCCCCCCCC
*  2010  5  9  6 15   .00000000                                                 
P  1  -9072.515726  23559.841993  -8159.172199   -117.943905                    
V  1  -7871.278616   7033.391151  29612.575561      -.040656                    
P  2 -14314.694660 -22344.563906  -3833.332373    253.984747                    
V  2    557.683179  -5631.203142  30502.351170       .034958                    
P  3  18627.991094  11111.032150 -15914.656853    552.536351                    
V  3 -19399.732937   3173.028744 -20626.618116       .049496                    
P  4  -3945.524774 -24250.296585   9445.554638     77.879573                    
V  4   8465.973422   9680.177598  28246.554979       .083449                    
P  5  -9114.237125 -13117.779584 -21226.571650     -2.637320                    
V  5  15646.963908 -21928.719796   6921.676013      -.008100                    
P  6  14525.013295  13399.557426 -17628.469880    645.081763                    
V  6 -22824.863695   1450.591266 -17380.607148      -.108117                    
P  7  10968.713358 -11084.736724 -21489.802801      -.291533                    
V  7  12251.094877  24347.957146  -6469.748064      -.003176                    
P  8   2901.658684 -20816.784714 -15917.288690      5.315679                    
V  8   8962.072871  18320.896713 -22857.513570       .002082                    
P  9 -17662.411709  -9732.369355  16769.125796      5.478504                    
V  9  -8863.814243 -20499.823235 -20530.745408       .022372                    
P 10  -1163.349681 -19853.791345 -17615.528542    -42.146744                    
V 10  14467.488333 -16900.849346  18626.406868      -.009033                    
P 11  20111.536397   2843.525005  17020.600091    -61.414061                    
V 11  11949.276611  18984.398491 -16664.961520      -.023476                    
P 12 -18546.450131   4549.695854  18445.638879   -117.465348                    
V 12  12161.526706 -19980.334977  17351.829754       .042971                    
P 13  22566.826853  -5367.092635 -13097.319789    304.629758                    
V 13  15972.877226   3724.088425  26251.983934      -.004039                    
P 14  -4015.687773  14285.141602  22157.260641     43.444112                    
V 14 -27506.887789  -3594.792449  -2807.193644       .044195                    
P 15 -24521.355527  -6915.038784  -7706.863354   -275.663500                    
V 15   9927.158183  -2179.793143 -29459.012306       .055715                    
P 16   3739.250363  17524.865569 -19466.336699    -69.627450                    
V 16 -15598.698534  19416.267330  14720.020661      -.037986                    
P 17   4907.586080 -14737.952023  21627.356781    149.587389                    
V 17  27070.255415   3117.592654  -4244.396403       .023594                    
P 18 -17565.686186  19109.528685  -4308.607321     67.060683                    
V 18    301.714364  -7011.793585 -30830.077874       .023988                    
P 19  24632.665753   8241.995589  -6243.462734    -33.622301                    
V 19  -8205.981736   1322.342678 -30158.009762      -.026570                    
P 20  19214.616727  -7571.724820  16534.845823     56.431877                    
V 20  -9516.304737  19246.842143  19758.907668      -.005993                    
P 21  -9037.412452  14904.452593 -19537.385037    -58.886242                    
V 21 -12496.367933 -22657.553871 -11942.661598      -.025753                    
P 22 -10620.272882  23344.810289   6882.664523    172.535289                    
V 22  -7849.107519   4919.610150 -29577.737816      -.008866                    
P 23  26348.004682   -873.053814  -4451.780502    371.503195                    
V 23   5354.300305   2731.505328  31043.170852      -.013538                    
P 24  -3085.641204  21388.588541 -15536.918761    285.741222                    
V 24  -9563.639350 -17455.481161 -21767.936479       .032873                    
P 26 -26499.464089  -1852.614995   2857.398075    -49.453060                    
V 26  -3997.968955  -2139.248673 -31855.115923      -.050049                    
P 27 -18529.371077 -11889.456633  15646.971421    150.311490                    
V 27  -7765.579834 -16902.463896 -22911.256376       .033895                    
P 28  12248.800517 -22879.512576   5340.154613    -16.654289                    
V 28   5805.396401  -3462.115261 -31184.086266       .009460                    
P 29 -22852.107054   6010.395229 -11995.898779    118.569192                    
V 29 -15053.562910  -4040.266972  26480.578438       .028171                    
P 30 -18440.950196  15638.972635  10536.532859    240.964287                    
V 30   5036.047881 -13337.339520  27638.642078       .034694                    
P 31   5806.352481  24629.586611   7971.611132    -37.612319                    
V 31  -6286.732473  -7935.230163  30042.529730       .022526                    
P 32  16586.815597   2757.206110  20826.395148     33.532640                    
V 32 -15502.305626  20593.642909  10113.251007      -.084899                    
EOF
